{
  "type": "FeatureCollection",
  "features": [
    {
      "type": "Feature",
      "properties": {
        "norad_id": 66654,
        "name": "JACK E",
        "group": "last-30-days",
        "lat": 28.896760515727244,
        "lon": -79.68259120443264,
        "alt_km": 598.4647238827147,
        "timestamp": "2025-12-23T14:49:07.962868+00:00",
        "meta_object_name": "JACK E",
        "meta_object_id": "2025-274E",
        "meta_epoch": "2025-12-23T01:48:45.900000",
        "meta_mean_motion": 14.9213434,
        "meta_eccentricity": 0.00122616,
        "meta_inclination": 97.7407,
        "meta_ra_of_asc_node": 284.0907,
        "meta_arg_of_pericenter": 216.9513,
        "meta_mean_anomaly": 143.0862,
        "meta_ephemeris_type": 0,
        "meta_classification_type": "U",
        "meta_norad_cat_id": 66654,
        "meta_element_set_no": 999,
        "meta_rev_at_epoch": 394,
        "meta_bstar": 0.00030189509,
        "meta_mean_motion_dot": 3.018e-05,
        "meta_mean_motion_ddot": 0,
        "tle_line1": "1 66654U 25274E   25357.07553125  .00003018  00000+0  30190-3 0  9994",
        "tle_line2": "2 66654  97.7407 284.0907 0012261 216.9513 143.0862 14.92134340  3943"
      },
      "geometry": {
        "type": "Point",
        "coordinates": [
          -79.68259120443264,
          28.896760515727244
        ]
      }
    },
    {
      "type": "Feature",
      "properties": {
        "norad_id": 66655,
        "name": "2025-274F",
        "group": "last-30-days",
        "lat": -4.286491040610231,
        "lon": -74.81941259420782,
        "alt_km": 594.3758926445225,
        "timestamp": "2025-12-23T14:49:07.962891+00:00",
        "meta_object_name": "2025-274F",
        "meta_object_id": "2025-274F",
        "meta_epoch": "2025-12-22T19:30:46.040832",
        "meta_mean_motion": 14.91185344,
        "meta_eccentricity": 0.0005049,
        "meta_inclination": 97.7313,
        "meta_ra_of_asc_node": 283.809,
        "meta_arg_of_pericenter": 346.5014,
        "meta_mean_anomaly": 13.6069,
        "meta_ephemeris_type": 0,
        "meta_classification_type": "U",
        "meta_norad_cat_id": 66655,
        "meta_element_set_no": 999,
        "meta_rev_at_epoch": 390,
        "meta_bstar": 2.0395e-05,
        "meta_mean_motion_dot": 1.48e-06,
        "meta_mean_motion_ddot": 0,
        "tle_line1": "1 66655U 25274F   25356.81303288  .00000148  00000+0  20395-4 0  9997",
        "tle_line2": "2 66655  97.7313 283.8090 0005049 346.5014  13.6069 14.91185344  3908"
      },
      "geometry": {
        "type": "Point",
        "coordinates": [
          -74.81941259420782,
          -4.286491040610231
        ]
      }
    },
    {
      "type": "Feature",
      "properties": {
        "norad_id": 66656,
        "name": "2025-274G",
        "group": "last-30-days",
        "lat": 46.81142833146189,
        "lon": -83.70139056225038,
        "alt_km": 595.3710060398234,
        "timestamp": "2025-12-23T14:49:07.962911+00:00",
        "meta_object_name": "2025-274G",
        "meta_object_id": "2025-274G",
        "meta_epoch": "2025-12-23T01:43:58.978560",
        "meta_mean_motion": 14.92330408,
        "meta_eccentricity": 0.0012838,
        "meta_inclination": 97.7403,
        "meta_ra_of_asc_node": 284.0942,
        "meta_arg_of_pericenter": 218.797,
        "meta_mean_anomaly": 141.2328,
        "meta_ephemeris_type": 0,
        "meta_classification_type": "U",
        "meta_norad_cat_id": 66656,
        "meta_element_set_no": 999,
        "meta_rev_at_epoch": 394,
        "meta_bstar": 0.00031930845,
        "meta_mean_motion_dot": 3.212e-05,
        "meta_mean_motion_ddot": 0,
        "tle_line1": "1 66656U 25274G   25357.07221040  .00003212  00000+0  31931-3 0  9994",
        "tle_line2": "2 66656  97.7403 284.0942 0012838 218.7970 141.2328 14.92330408  3947"
      },
      "geometry": {
        "type": "Point",
        "coordinates": [
          -83.70139056225038,
          46.81142833146189
        ]
      }
    },
    {
      "type": "Feature",
      "properties": {
        "norad_id": 66657,
        "name": "SPIRONE",
        "group": "last-30-days",
        "lat": 63.65868333788541,
        "lon": -91.30714626614301,
        "alt_km": 591.3978629533703,
        "timestamp": "2025-12-23T14:49:07.962923+00:00",
        "meta_object_name": "SPIRONE",
        "meta_object_id": "2025-274H",
        "meta_epoch": "2025-12-23T01:39:25.488000",
        "meta_mean_motion": 14.92508675,
        "meta_eccentricity": 0.00109073,
        "meta_inclination": 97.74,
        "meta_ra_of_asc_node": 284.0976,
        "meta_arg_of_pericenter": 236.6592,
        "meta_mean_anomaly": 123.3584,
        "meta_ephemeris_type": 0,
        "meta_classification_type": "U",
        "meta_norad_cat_id": 66657,
        "meta_element_set_no": 999,
        "meta_rev_at_epoch": 394,
        "meta_bstar": 0.00030253512,
        "meta_mean_motion_dot": 3.053e-05,
        "meta_mean_motion_ddot": 0,
        "tle_line1": "1 66657U 25274H   25357.06904500  .00003053  00000+0  30254-3 0  9993",
        "tle_line2": "2 66657  97.7400 284.0976 0010907 236.6592 123.3584 14.92508675  3944"
      },
      "geometry": {
        "type": "Point",
        "coordinates": [
          -91.30714626614301,
          63.65868333788541
        ]
      }
    },
    {
      "type": "Feature",
      "properties": {
        "norad_id": 66658,
        "name": "2025-274J",
        "group": "last-30-days",
        "lat": 78.4858549537032,
        "lon": -117.24347970788685,
        "alt_km": 589.5842138087692,
        "timestamp": "2025-12-23T14:49:07.962936+00:00",
        "meta_object_name": "2025-274J",
        "meta_object_id": "2025-274J",
        "meta_epoch": "2025-12-23T01:35:01.942944",
        "meta_mean_motion": 14.92679465,
        "meta_eccentricity": 0.00114477,
        "meta_inclination": 97.7401,
        "meta_ra_of_asc_node": 284.1018,
        "meta_arg_of_pericenter": 240.038,
        "meta_mean_anomaly": 119.9703,
        "meta_ephemeris_type": 0,
        "meta_classification_type": "U",
        "meta_norad_cat_id": 66658,
        "meta_element_set_no": 999,
        "meta_rev_at_epoch": 394,
        "meta_bstar": 0.00031207048,
        "meta_mean_motion_dot": 3.165e-05,
        "meta_mean_motion_ddot": 0,
        "tle_line1": "1 66658U 25274J   25357.06599471  .00003165  00000+0  31207-3 0  9994",
        "tle_line2": "2 66658  97.7401 284.1018 0011447 240.0380 119.9703 14.92679465  3948"
      },
      "geometry": {
        "type": "Point",
        "coordinates": [
          -117.24347970788685,
          78.4858549537032
        ]
      }
    },
    {
      "type": "Feature",
      "properties": {
        "norad_id": 66659,
        "name": "JACK K",
        "group": "last-30-days",
        "lat": 77.8589930815447,
        "lon": 143.86555816145548,
        "alt_km": 588.2594815821712,
        "timestamp": "2025-12-23T14:49:07.962947+00:00",
        "meta_object_name": "JACK K",
        "meta_object_id": "2025-274K",
        "meta_epoch": "2025-12-22T17:27:43.537536",
        "meta_mean_motion": 14.9285943,
        "meta_eccentricity": 0.0012111,
        "meta_inclination": 97.7399,
        "meta_ra_of_asc_node": 283.7772,
        "meta_arg_of_pericenter": 243.0976,
        "meta_mean_anomaly": 116.9007,
        "meta_ephemeris_type": 0,
        "meta_classification_type": "U",
        "meta_norad_cat_id": 66659,
        "meta_element_set_no": 999,
        "meta_rev_at_epoch": 389,
        "meta_bstar": 0.00023034207,
        "meta_mean_motion_dot": 2.332e-05,
        "meta_mean_motion_ddot": 0,
        "tle_line1": "1 66659U 25274K   25356.72758724  .00002332  00000+0  23034-3 0  9999",
        "tle_line2": "2 66659  97.7399 283.7772 0012111 243.0976 116.9007 14.92859430  3890"
      },
      "geometry": {
        "type": "Point",
        "coordinates": [
          143.86555816145548,
          77.8589930815447
        ]
      }
    },
    {
      "type": "Feature",
      "properties": {
        "norad_id": 66660,
        "name": "K-HERO",
        "group": "last-30-days",
        "lat": 64.92877219391984,
        "lon": 121.56234302402736,
        "alt_km": 587.5561400029665,
        "timestamp": "2025-12-23T14:49:07.962973+00:00",
        "meta_object_name": "K-HERO",
        "meta_object_id": "2025-274L",
        "meta_epoch": "2025-12-22T17:23:57.284448",
        "meta_mean_motion": 14.93010344,
        "meta_eccentricity": 0.00127153,
        "meta_inclination": 97.7405,
        "meta_ra_of_asc_node": 283.7817,
        "meta_arg_of_pericenter": 243.9254,
        "meta_mean_anomaly": 116.0658,
        "meta_ephemeris_type": 0,
        "meta_classification_type": "U",
        "meta_norad_cat_id": 66660,
        "meta_element_set_no": 999,
        "meta_rev_at_epoch": 389,
        "meta_bstar": 0.00022529621,
        "meta_mean_motion_dot": 2.289e-05,
        "meta_mean_motion_ddot": 0,
        "tle_line1": "1 66660U 25274L   25356.72496857  .00002289  00000+0  22530-3 0  9998",
        "tle_line2": "2 66660  97.7405 283.7817 0012715 243.9254 116.0658 14.93010344  3895"
      },
      "geometry": {
        "type": "Point",
        "coordinates": [
          121.56234302402736,
          64.92877219391984
        ]
      }
    }
  ]
}